H1 CPF 01  gfz 2022 06 29 12  6802 tandemx   
H2 1003001  6202 36605    2022 06 29 12 59 42 2022 07 04 00 00 42   120 1 1  0 0 0
H9
10 0 59763  48942.000000  0    2505586.996   6240981.740  -1504552.587
10 0 59763  49062.000000  0    2723901.434   6299573.186   -610927.120
10 0 59763  49182.000000  0    2894672.474   6244726.221    293441.840
10 0 59763  49302.000000  0    3012921.025   6078216.485   1192644.288
10 0 59763  49422.000000  0    3074641.692   5803871.063   2070848.055
10 0 59763  49542.000000  0    3076909.903   5427484.366   2912586.016
10 0 59763  49662.000000  0    3017967.146   4956694.412   3703036.463
10 0 59763  49782.000000  0    2897282.523   4400823.420   4428290.182
10 0 59763  49902.000000  0    2715586.849   3770685.967   5075600.713
10 0 59763  50022.000000  0    2474878.448   3078368.477   5633607.549
10 0 59763  50142.000000  0    2178405.280   2336990.616   6092530.620
10 0 59763  50262.000000  0    1830621.938   1560451.870   6444337.776
10 0 59763  50382.000000  0    1437120.781    763165.937   6682879.871
10 0 59763  50502.000000  0    1004539.954    -40208.465   6803990.829
10 0 59763  50622.000000  0     540450.812   -835035.693   6805556.473
10 0 59763  50742.000000  0      53225.102  -1606970.175   6687550.346
10 0 59763  50862.000000  0    -448116.301  -2342215.242   6452033.728
10 0 59763  50982.000000  0    -954070.200  -3027770.242   6103120.984
10 0 59763  51102.000000  0   -1454828.927  -3651660.877   5646910.251
10 0 59763  51222.000000  0   -1940468.145  -4203150.312   5091383.868
10 0 59763  51342.000000  0   -2401144.078  -4672929.642   4446276.938
10 0 59763  51462.000000  0   -2827295.383  -5053283.063   3722912.355
10 0 59763  51582.000000  0   -3209843.402  -5338222.586   2934003.649
10 0 59763  51702.000000  0   -3540385.584  -5523588.060   2093430.682
10 0 59763  51822.000000  0   -3811379.037  -5607112.061   1215992.976
10 0 59763  51942.000000  0   -4016309.992  -5588447.202    317143.675
10 0 59763  52062.000000  0   -4149844.268  -5469154.641   -587289.940
10 0 59763  52182.000000  0   -4207954.953  -5252654.186  -1481394.271
10 0 59763  52302.000000  0   -4188023.220  -4944135.885  -2349458.837
10 0 59763  52422.000000  0   -4088909.937  -4550435.941  -3176259.683
10 0 59763  52542.000000  0   -3910996.403  -4079881.307  -3947330.334
10 0 59763  52662.000000  0   -3656194.145  -3542108.057  -4649214.815
10 0 59763  52782.000000  0   -3327924.570  -2947858.355  -5269698.989
10 0 59763  52902.000000  0   -2931069.069  -2308760.500  -5798016.004
10 0 59763  53022.000000  0   -2471891.856  -1637098.248  -6225023.393
10 0 59763  53142.000000  0   -1957936.666   -945573.396  -6543350.969
10 0 59763  53262.000000  0   -1397899.411   -247066.402  -6747516.118
10 0 59763  53382.000000  0    -801481.161    445599.464  -6834006.732
10 0 59763  53502.000000  0    -179223.091   1119887.298  -6801335.073
10 0 59763  53622.000000  0     457675.318   1763767.546  -6650060.270
10 0 59763  53742.000000  0    1097551.807   2365926.993  -6382781.727
10 0 59763  53862.000000  0    1728491.059   2915964.774  -6004100.082
10 0 59763  53982.000000  0    2338542.034   3404571.269  -5520545.942
10 0 59763  54102.000000  0    2915941.360   3823686.362  -4940477.398
10 0 59763  54222.000000  0    3449338.792   4166636.405  -4273947.622
10 0 59763  54342.000000  0    3928021.837   4428246.965  -3532541.467
10 0 59763  54462.000000  0    4342134.493   4604927.726  -2729182.341
10 0 59763  54582.000000  0    4682884.142   4694726.648  -1877911.145
10 0 59763  54702.000000  0    4942732.287   4697352.733   -993642.958
10 0 59763  54822.000000  0    5115564.453   4614165.160    -91902.469
10 0 59763  54942.000000  0    5196831.774   4448128.787    811454.171
10 0 59763  55062.000000  0    5183663.450   4203738.096   1700524.772
10 0 59763  55182.000000  0    5074947.648   3886909.918   2559649.747
10 0 59763  55302.000000  0    4871375.412   3504846.427   3373697.691
10 0 59763  55422.000000  0    4575446.454   3065873.286   4128339.090
10 0 59763  55542.000000  0    4191438.727   2579257.049   4810302.593
10 0 59763  55662.000000  0    3725343.761   2055007.617   5407609.863
10 0 59763  55782.000000  0    3184765.151   1503669.833   5909785.468
10 0 59763  55902.000000  0    2578787.725    936108.367   6308035.581
10 0 59763  56022.000000  0    1917819.493    363291.805   6595394.643
10 0 59763  56142.000000  0    1213409.875   -203918.107   6766841.277
10 0 59763  56262.000000  0     478045.642   -754971.827   6819382.785
10 0 59763  56382.000000  0    -275071.792  -1279828.426   6752103.532
10 0 59763  56502.000000  0   -1032263.347  -1769138.086   6566179.296
10 0 59763  56622.000000  0   -1779619.979  -2214408.743   6264856.532
10 0 59763  56742.000000  0   -2503255.756  -2608152.885   5853398.820
10 0 59763  56862.000000  0   -3189565.685  -2944015.283   5339003.329
10 0 59763  56982.000000  0   -3825486.438  -3216879.417   4730681.530
10 0 59763  57102.000000  0   -4398749.668  -3422947.796   4039104.880
10 0 59763  57222.000000  0   -4898123.776  -3559795.609   3276421.043
10 0 59763  57342.000000  0   -5313639.949  -3626396.870   2456042.843
10 0 59763  57462.000000  0   -5636798.460  -3623123.053   1592411.632
10 0 59763  57582.000000  0   -5860747.898  -3551712.341    700737.796
10 0 59763  57702.000000  0   -5980432.768  -3415209.735   -203274.121
10 0 59763  57822.000000  0   -5992706.250  -3217880.697  -1103710.520
10 0 59763  57942.000000  0   -5896404.174  -2965099.409  -1984739.132
10 0 59763  58062.000000  0   -5692376.994  -2663214.398  -2830895.491
10 0 59763  58182.000000  0   -5383482.034  -2319396.814  -3627359.120
10 0 59763  58302.000000  0   -4974535.892  -1941474.719  -4360214.932
10 0 59763  58422.000000  0   -4472229.483  -1537758.011  -5016694.286
10 0 59763  58542.000000  0   -3885008.002  -1116858.109  -5585392.551
10 0 59763  58662.000000  0   -3222918.666   -687506.247  -6056458.507
10 0 59763  58782.000000  0   -2497431.346   -258375.086  -6421753.758
10 0 59763  58902.000000  0   -1721235.564    162092.752  -6674981.720
10 0 59763  59022.000000  0    -908017.410    565845.785  -6811784.505
10 0 59763  59142.000000  0     -72222.046    945373.108  -6829809.391
10 0 59763  59262.000000  0     771196.462   1293840.272  -6728744.191
10 0 59763  59382.000000  0    1607035.453   1605208.494  -6510324.468
10 0 59763  59502.000000  0    2420112.525   1874338.302  -6178307.638
10 0 59763  59622.000000  0    3195536.766   2097073.814  -5738414.935
10 0 59763  59742.000000  0    3918978.016   2270306.696  -5198241.741
10 0 59763  59862.000000  0    4576931.671   2392019.766  -4567138.758
10 0 59763  59982.000000  0    5156975.382   2461309.077  -3856061.047
10 0 59763  60102.000000  0    5648010.032   2478383.179  -3077386.756
10 0 59763  60222.000000  0    6040481.091   2444539.740  -2244709.495
10 0 59763  60342.000000  0    6326576.171   2362119.625  -1372603.759
10 0 59763  60462.000000  0    6500389.946   2234438.371   -476368.624
10 0 59763  60582.000000  0    6558054.689   2065696.789    428245.378
10 0 59763  60702.000000  0    6497828.578   1860871.779   1325320.540
10 0 59763  60822.000000  0    6320144.258   1625592.267   2199058.645
10 0 59763  60942.000000  0    6027613.684   1366001.071   3034069.486
10 0 59763  61062.000000  0    5624987.346   1088606.923   3815649.755
10 0 59763  61182.000000  0    5119070.404    800130.918   4530048.172
10 0 59763  61302.000000  0    4518598.771    507351.580   5164709.029
10 0 59763  61422.000000  0    3834079.261    216952.004   5708493.374
10 0 59763  61542.000000  0    3077594.981    -64628.073   6151871.596
10 0 59763  61662.000000  0    2262584.085   -331329.762   6487083.760
10 0 59763  61782.000000  0    1403596.658   -577601.274   6708269.890
10 0 59763  61902.000000  0     516031.386   -798510.984   6811567.997
10 0 59763  62022.000000  0    -384142.741   -989844.539   6795176.450
10 0 59763  62142.000000  0   -1280673.269  -1148184.695   6659382.492
10 0 59763  62262.000000  0   -2157316.541  -1270972.440   6406556.620
10 0 59763  62382.000000  0   -2998129.970  -1356547.757   6041113.358
10 0 59763  62502.000000  0   -3787762.293  -1404170.474   5569441.310
10 0 59763  62622.000000  0   -4511738.648  -1414021.981   4999798.277
10 0 59763  62742.000000  0   -5156732.437  -1387186.474   4342172.024
10 0 59763  62862.000000  0   -5710818.586  -1325611.405   3608108.635
10 0 59763  62982.000000  0   -6163701.949  -1232048.072   2810511.864
10 0 59763  63102.000000  0   -6506918.065  -1109974.269   1963417.828
10 0 59763  63222.000000  0   -6734002.597   -963500.494   1081744.879
10 0 59763  63342.000000  0   -6840619.940   -797261.329    181023.369
10 0 59763  63462.000000  0   -6824649.142   -616294.914   -722886.233
10 0 59763  63582.000000  0   -6686225.450   -425913.805  -1614081.896
10 0 59763  63702.000000  0   -6427735.402   -231570.377  -2476907.568
10 0 59763  63822.000000  0   -6053769.250    -38721.321  -3296234.106
10 0 59763  63942.000000  0   -5571028.744    147307.170  -4057729.937
10 0 59763  64062.000000  0   -4988193.235    321448.982  -4748111.663
10 0 59763  64182.000000  0   -4315750.350    479019.539  -5355371.496
10 0 59763  64302.000000  0   -3565795.625    615826.558  -5868978.462
10 0 59763  64422.000000  0   -2751805.523    728266.538  -6280050.514
10 0 59763  64542.000000  0   -1888390.638    813406.531  -6581495.516
10 0 59763  64662.000000  0    -991032.667    869050.050  -6768123.099
10 0 59763  64782.000000  0     -75809.338    893785.912  -6836723.375
10 0 59763  64902.000000  0     840886.234    887018.944  -6786115.279
10 0 59763  65022.000000  0    1742631.475    848982.424  -6617167.379
10 0 59763  65142.000000  0    2613263.058    780732.486  -6332785.044
10 0 59763  65262.000000  0    3437161.430    684124.424  -5937865.581
10 0 59763  65382.000000  0    4199527.499    561770.657  -5439221.739
99
